{
    "links": {
        "self": "http://www.neowsapp.com/rest/v1/neo/3170225?api_key=iIulBulltgU6a56xZRHN4H3l9WmuAYTsLGpBGhQ2"
    },
    "id": "3170225",
    "neo_reference_id": "3170225",
    "name": "(2003 YT70)",
    "designation": "2003 YT70",
    "nasa_jpl_url": "http://ssd.jpl.nasa.gov/sbdb.cgi?sstr=3170225",
    "absolute_magnitude_h": 25.8,
    "estimated_diameter": {
        "kilometers": {
            "estimated_diameter_min": 0.0183888672,
            "estimated_diameter_max": 0.0411187571
        },
        "meters": {
            "estimated_diameter_min": 18.388867207,
            "estimated_diameter_max": 41.1187571041
        },
        "miles": {
            "estimated_diameter_min": 0.0114263088,
            "estimated_diameter_max": 0.0255500032
        },
        "feet": {
            "estimated_diameter_min": 60.3309310875,
            "estimated_diameter_max": 134.9040630575
        }
    },
    "is_potentially_hazardous_asteroid": false,
    "close_approach_data": [
        {
            "close_approach_date": "2003-12-21",
            "close_approach_date_full": "2003-Dec-21 13:47",
            "epoch_date_close_approach": 1072014420000,
            "relative_velocity": {
                "kilometers_per_second": "3.8563319297",
                "kilometers_per_hour": "13882.7949467577",
                "miles_per_hour": "8626.2288934451"
            },
            "miss_distance": {
                "astronomical": "0.0589916828",
                "lunar": "22.9477646092",
                "kilometers": "8825030.094595636",
                "miles": "5483619.4219703368"
            },
            "orbiting_body": "Earth"
        },
        {
            "close_approach_date": "2062-01-21",
            "close_approach_date_full": "2062-Jan-21 19:00",
            "epoch_date_close_approach": 2905095600000,
            "relative_velocity": {
                "kilometers_per_second": "9.3387153726",
                "kilometers_per_hour": "33619.3753414341",
                "miles_per_hour": "20889.772417015"
            },
            "miss_distance": {
                "astronomical": "0.0311544356",
                "lunar": "12.1190754484",
                "kilometers": "4660637.206812172",
                "miles": "2895985.6716730936"
            },
            "orbiting_body": "Mars"
        },
        {
            "close_approach_date": "2158-12-09",
            "close_approach_date_full": "2158-Dec-09 11:03",
            "epoch_date_close_approach": 5962330980000,
            "relative_velocity": {
                "kilometers_per_second": "4.1612227035",
                "kilometers_per_hour": "14980.4017326197",
                "miles_per_hour": "9308.2390654714"
            },
            "miss_distance": {
                "astronomical": "0.0657318645",
                "lunar": "25.5696952905",
                "kilometers": "9833346.920328615",
                "miles": "6110158.444480287"
            },
            "orbiting_body": "Earth"
        }
    ],
    "orbital_data": {
        "orbit_id": "9",
        "orbit_determination_date": "2017-04-06 09:13:22",
        "first_observation_date": "2003-12-22",
        "last_observation_date": "2004-01-13",
        "data_arc_in_days": 22,
        "observations_used": 24,
        "orbit_uncertainty": "8",
        "minimum_orbit_intersection": ".0540199",
        "jupiter_tisserand_invariant": "4.314",
        "epoch_osculation": "2453001.5",
        "eccentricity": ".3459472583267945",
        "semi_major_axis": "1.587511174214304",
        "inclination": ".3777948781013153",
        "ascending_node_longitude": "74.22292163434773",
        "orbital_period": "730.5898145075961",
        "perihelion_distance": "1.038316035931715",
        "perihelion_argument": "9.981414659079395",
        "aphelion_distance": "2.136706312496892",
        "perihelion_time": "2452991.530811825212",
        "mean_anomaly": "4.912342975028385",
        "mean_motion": ".4927525580720466",
        "equinox": "J2000",
        "orbit_class": {
            "orbit_class_type": "AMO",
            "orbit_class_description": "Near-Earth asteroid orbits similar to that of 1221 Amor",
            "orbit_class_range": "1.017 AU < q (perihelion) < 1.3 AU"
        }
    },
    "is_sentry_object": false
}